CCSDS_OMM_VERS = 2.0
CREATION_DATE  = 
ORIGINATOR     = 

OBJECT_NAME    = ATLAS CENTAUR R/B
OBJECT_ID      = 1972-065B
CENTER_NAME    = EARTH
REF_FRAME      = TEME
TIME_SYSTEM    = UTC
MEAN_ELEMENT_THEORY = SGP/SGP4

EPOCH          = 2026-03-20T12:05:50.585280
MEAN_MOTION    = 14.77716471
ECCENTRICITY   = .00328687
INCLINATION    = 35.0005
RA_OF_ASC_NODE = 242.3754
ARG_OF_PERICENTER = 101.2203
MEAN_ANOMALY   = 259.2194

EPHEMERIS_TYPE = 0
CLASSIFICATION_TYPE = U
NORAD_CAT_ID   = 6155
ELEMENT_SET_NO = 999
REV_AT_EPOCH   = 84286
BSTAR          = .17194506E-3
MEAN_MOTION_DOT = .1239E-4
MEAN_MOTION_DDOT = 0

CCSDS_OMM_VERS = 2.0
CREATION_DATE  = 
ORIGINATOR     = 

OBJECT_NAME    = SL-8 R/B
OBJECT_ID      = 1975-112B
CENTER_NAME    = EARTH
REF_FRAME      = TEME
TIME_SYSTEM    = UTC
MEAN_ELEMENT_THEORY = SGP/SGP4

EPOCH          = 2026-03-20T11:50:31.950240
MEAN_MOTION    = 14.38209812
ECCENTRICITY   = .00144513
INCLINATION    = 74.0637
RA_OF_ASC_NODE = 359.0398
ARG_OF_PERICENTER = 87.7386
MEAN_ANOMALY   = 272.5423

EPHEMERIS_TYPE = 0
CLASSIFICATION_TYPE = U
NORAD_CAT_ID   = 8459
ELEMENT_SET_NO = 999
REV_AT_EPOCH   = 63342
BSTAR          = .81219613E-4
MEAN_MOTION_DOT = .221E-5
MEAN_MOTION_DDOT = 0

CCSDS_OMM_VERS = 2.0
CREATION_DATE  = 
ORIGINATOR     = 

OBJECT_NAME    = SL-3 R/B
OBJECT_ID      = 1977-057B
CENTER_NAME    = EARTH
REF_FRAME      = TEME
TIME_SYSTEM    = UTC
MEAN_ELEMENT_THEORY = SGP/SGP4

EPOCH          = 2026-03-20T14:17:09.676896
MEAN_MOTION    = 15.45788565
ECCENTRICITY   = .00063295
INCLINATION    = 97.5783
RA_OF_ASC_NODE = 251.9996
ARG_OF_PERICENTER = 238.5013
MEAN_ANOMALY   = 121.5617

EPHEMERIS_TYPE = 0
CLASSIFICATION_TYPE = U
NORAD_CAT_ID   = 10114
ELEMENT_SET_NO = 999
REV_AT_EPOCH   = 67001
BSTAR          = .26547455E-3
MEAN_MOTION_DOT = .12775E-3
MEAN_MOTION_DDOT = 0

CCSDS_OMM_VERS = 2.0
CREATION_DATE  = 
ORIGINATOR     = 

OBJECT_NAME    = SEASAT 1
OBJECT_ID      = 1978-064A
CENTER_NAME    = EARTH
REF_FRAME      = TEME
TIME_SYSTEM    = UTC
MEAN_ELEMENT_THEORY = SGP/SGP4

EPOCH          = 2026-03-20T10:12:25.282368
MEAN_MOTION    = 14.46168493
ECCENTRICITY   = .00025017
INCLINATION    = 108.0087
RA_OF_ASC_NODE = 148.0263
ARG_OF_PERICENTER = 280.9211
MEAN_ANOMALY   = 79.1653

EPHEMERIS_TYPE = 0
CLASSIFICATION_TYPE = U
NORAD_CAT_ID   = 10967
ELEMENT_SET_NO = 999
REV_AT_EPOCH   = 50806
BSTAR          = .89574706E-4
MEAN_MOTION_DOT = .183E-5
MEAN_MOTION_DDOT = 0

CCSDS_OMM_VERS = 2.0
CREATION_DATE  = 
ORIGINATOR     = 

OBJECT_NAME    = SL-14 R/B
OBJECT_ID      = 1979-011B
CENTER_NAME    = EARTH
REF_FRAME      = TEME
TIME_SYSTEM    = UTC
MEAN_ELEMENT_THEORY = SGP/SGP4

EPOCH          = 2026-03-20T09:05:18.682080
MEAN_MOTION    = 14.91920753
ECCENTRICITY   = .00167167
INCLINATION    = 82.5204
RA_OF_ASC_NODE = 86.4247
ARG_OF_PERICENTER = 27.1182
MEAN_ANOMALY   = 333.0907

EPHEMERIS_TYPE = 0
CLASSIFICATION_TYPE = U
NORAD_CAT_ID   = 11267
ELEMENT_SET_NO = 999
REV_AT_EPOCH   = 53037
BSTAR          = .51713979E-4
MEAN_MOTION_DOT = .55E-5
MEAN_MOTION_DDOT = 0

CCSDS_OMM_VERS = 2.0
CREATION_DATE  = 
ORIGINATOR     = 

OBJECT_NAME    = SL-8 R/B
OBJECT_ID      = 1979-089B
CENTER_NAME    = EARTH
REF_FRAME      = TEME
TIME_SYSTEM    = UTC
MEAN_ELEMENT_THEORY = SGP/SGP4

EPOCH          = 2026-03-20T11:54:30.750336
MEAN_MOTION    = 14.42356794
ECCENTRICITY   = .00169865
INCLINATION    = 74.0673
RA_OF_ASC_NODE = 71.0372
ARG_OF_PERICENTER = 242.5200
MEAN_ANOMALY   = 117.4230

EPHEMERIS_TYPE = 0
CLASSIFICATION_TYPE = U
NORAD_CAT_ID   = 11574
ELEMENT_SET_NO = 999
REV_AT_EPOCH   = 43766
BSTAR          = .54623629E-4
MEAN_MOTION_DOT = .154E-5
MEAN_MOTION_DDOT = 0

CCSDS_OMM_VERS = 2.0
CREATION_DATE  = 
ORIGINATOR     = 

OBJECT_NAME    = SL-14 R/B
OBJECT_ID      = 1980-005B
CENTER_NAME    = EARTH
REF_FRAME      = TEME
TIME_SYSTEM    = UTC
MEAN_ELEMENT_THEORY = SGP/SGP4

EPOCH          = 2026-03-20T07:57:33.505056
MEAN_MOTION    = 14.90941572
ECCENTRICITY   = .00169606
INCLINATION    = 82.5124
RA_OF_ASC_NODE = 297.1403
ARG_OF_PERICENTER = 124.7812
MEAN_ANOMALY   = 235.5007

EPHEMERIS_TYPE = 0
CLASSIFICATION_TYPE = U
NORAD_CAT_ID   = 11672
ELEMENT_SET_NO = 999
REV_AT_EPOCH   = 47807
BSTAR          = .4385498E-4
MEAN_MOTION_DOT = .459E-5
MEAN_MOTION_DDOT = 0

CCSDS_OMM_VERS = 2.0
CREATION_DATE  = 
ORIGINATOR     = 

OBJECT_NAME    = SL-8 R/B
OBJECT_ID      = 1981-003B
CENTER_NAME    = EARTH
REF_FRAME      = TEME
TIME_SYSTEM    = UTC
MEAN_ELEMENT_THEORY = SGP/SGP4

EPOCH          = 2026-03-19T23:59:19.951008
MEAN_MOTION    = 15.11391095
ECCENTRICITY   = .02614312
INCLINATION    = 82.9357
RA_OF_ASC_NODE = 280.4886
ARG_OF_PERICENTER = 142.7040
MEAN_ANOMALY   = 219.2671

EPHEMERIS_TYPE = 0
CLASSIFICATION_TYPE = U
NORAD_CAT_ID   = 12139
ELEMENT_SET_NO = 999
REV_AT_EPOCH   = 31623
BSTAR          = .45513345E-3
MEAN_MOTION_DOT = .17956E-3
MEAN_MOTION_DDOT = 0

CCSDS_OMM_VERS = 2.0
CREATION_DATE  = 
ORIGINATOR     = 

OBJECT_NAME    = SL-3 R/B
OBJECT_ID      = 1981-046B
CENTER_NAME    = EARTH
REF_FRAME      = TEME
TIME_SYSTEM    = UTC
MEAN_ELEMENT_THEORY = SGP/SGP4

EPOCH          = 2026-03-20T11:46:28.826688
MEAN_MOTION    = 15.42241141
ECCENTRICITY   = .00187086
INCLINATION    = 81.2279
RA_OF_ASC_NODE = 276.7701
ARG_OF_PERICENTER = 344.5158
MEAN_ANOMALY   = 15.5510

EPHEMERIS_TYPE = 0
CLASSIFICATION_TYPE = U
NORAD_CAT_ID   = 12465
ELEMENT_SET_NO = 999
REV_AT_EPOCH   = 44009
BSTAR          = .19414996E-3
MEAN_MOTION_DOT = .8424E-4
MEAN_MOTION_DDOT = 0

CCSDS_OMM_VERS = 2.0
CREATION_DATE  = 
ORIGINATOR     = 

OBJECT_NAME    = SL-3 R/B
OBJECT_ID      = 1981-103B
CENTER_NAME    = EARTH
REF_FRAME      = TEME
TIME_SYSTEM    = UTC
MEAN_ELEMENT_THEORY = SGP/SGP4

EPOCH          = 2026-03-20T14:58:26.937696
MEAN_MOTION    = 15.21499897
ECCENTRICITY   = .00124335
INCLINATION    = 81.1606
RA_OF_ASC_NODE = 200.6055
ARG_OF_PERICENTER = 247.1399
MEAN_ANOMALY   = 112.8520

EPHEMERIS_TYPE = 0
CLASSIFICATION_TYPE = U
NORAD_CAT_ID   = 12904
ELEMENT_SET_NO = 999
REV_AT_EPOCH   = 97489
BSTAR          = .24966125E-3
MEAN_MOTION_DOT = .5652E-4
MEAN_MOTION_DDOT = 0

CCSDS_OMM_VERS = 2.0
CREATION_DATE  = 
ORIGINATOR     = 

OBJECT_NAME    = SL-3 R/B
OBJECT_ID      = 1982-013B
CENTER_NAME    = EARTH
REF_FRAME      = TEME
TIME_SYSTEM    = UTC
MEAN_ELEMENT_THEORY = SGP/SGP4

EPOCH          = 2026-03-20T13:28:58.511712
MEAN_MOTION    = 15.22113028
ECCENTRICITY   = .00232197
INCLINATION    = 81.1749
RA_OF_ASC_NODE = 148.0286
ARG_OF_PERICENTER = 141.4225
MEAN_ANOMALY   = 218.8672

EPHEMERIS_TYPE = 0
CLASSIFICATION_TYPE = U
NORAD_CAT_ID   = 13068
ELEMENT_SET_NO = 999
REV_AT_EPOCH   = 40600
BSTAR          = .15488873E-3
MEAN_MOTION_DOT = .3599E-4
MEAN_MOTION_DDOT = 0

CCSDS_OMM_VERS = 2.0
CREATION_DATE  = 
ORIGINATOR     = 

OBJECT_NAME    = SL-3 R/B
OBJECT_ID      = 1982-039B
CENTER_NAME    = EARTH
REF_FRAME      = TEME
TIME_SYSTEM    = UTC
MEAN_ELEMENT_THEORY = SGP/SGP4

EPOCH          = 2026-03-20T14:09:17.241696
MEAN_MOTION    = 15.10139992
ECCENTRICITY   = .00291827
INCLINATION    = 81.1575
RA_OF_ASC_NODE = 203.3942
ARG_OF_PERICENTER = 288.6331
MEAN_ANOMALY   = 71.1726

EPHEMERIS_TYPE = 0
CLASSIFICATION_TYPE = U
NORAD_CAT_ID   = 13154
ELEMENT_SET_NO = 999
REV_AT_EPOCH   = 38328
BSTAR          = .13857088E-3
MEAN_MOTION_DOT = .2305E-4
MEAN_MOTION_DDOT = 0

